0 ARIANE 44L R/B
1 27402U 02015D   13281.88913593  .00004891  00000-0  38464-2 0  8138
2 27402 003.7461 003.4466 7126673 201.5077 096.6823 02.44217809100748
0 ARIANE 44L R/B
1 27402U 02015D   13283.02285753  .00004826  00000-0  37134-2 0  8148
2 27402 003.7481 002.9746 7126719 202.4855 013.4302 02.44229188100775
0 ARIANE 44L R/B
1 27402U 02015D   13283.52254221  .00008587  00000-0  61177-2 0  8163
2 27402 003.7264 002.3077 7128890 203.3718 092.7673 02.44230775100781
0 ARIANE 44L R/B
1 27402U 02015D   13284.11939616  .00005463  00000-0  42176-2 0  8154
2 27402 003.7501 002.5182 7126735 203.4272 257.5416 02.44239269100802
0 ARIANE 44L R/B
1 27402U 02015D   13285.44600084  .00004862  00000-0  37818-2 0  8165
2 27402 003.7524 001.9656 7126752 204.5725 343.9778 02.44254354100836
0 ARIANE 44L R/B
1 27402U 02015D   13286.78345365  .00005561  00000-0  44469-2 0  8179
2 27402 003.7547 001.4086 7126814 205.7218 080.0386 02.44264722100869
0 ARIANE 44L R/B
1 27402U 02015D   13287.49926284  .00005076  00000-0  41700-2 0  8180
2 27402 003.7559 001.1103 7126837 206.3412 349.4775 02.44275958100886
0 ARIANE 44L R/B
1 27402U 02015D   13288.59353731  .00005456  00000-0  45529-2 0  8199
2 27402 003.7579 000.6558 7126821 207.2812 231.7724 02.44293190100912
0 ARIANE 44L R/B
1 27402U 02015D   13289.07698715  .00004867  00000-0  41418-2 0  8207
2 27402 003.7588 000.4549 7126816 207.6961 296.9255 02.44301497100926
0 ARIANE 44L R/B
1 27402U 02015D   13289.55029655  .00005118  00000-0  43442-2 0  8211
2 27402 003.7596 000.2576 7126861 208.1009 353.1877 02.44304728100939
0 ARIANE 44L R/B
1 27402U 02015D   13291.47518060  .00004595  00000-0  40841-2 0  8227
2 27402 003.7629 359.4572 7126732 209.7547 246.1321 02.44330690100989
0 ARIANE 44L R/B
1 27402U 02015D   13292.03085641  .00004408  00000-0  38952-2 0  8238
2 27402 003.7637 359.2244 7126769 210.2393 014.8826 02.44334212100993
0 ARIANE 44L R/B
1 27402U 02015D   13293.05938889  .00004498  00000-0  38642-2 0  8248
2 27402 003.7653 358.7965 7126657 211.1239 199.5759 02.44346480101021
0 ARIANE 44L R/B
1 27402U 02015D   13294.13876740  .00004056  00000-0  34135-2 0  8259
2 27402 003.7670 358.3506 7126569 212.0547 069.0299 02.44359371101046
0 ARIANE 44L R/B
1 27402U 02015D   13295.20800562  .00004555  00000-0  36705-2 0  8267
2 27402 003.7686 357.9068 7126506 212.9732 289.6254 02.44370281101074
